OBJECT_NAME,OBJECT_ID,EPOCH,MEAN_MOTION,ECCENTRICITY,INCLINATION,RA_OF_ASC_NODE,ARG_OF_PERICENTER,MEAN_ANOMALY,EPHEMERIS_TYPE,CLASSIFICATION_TYPE,NORAD_CAT_ID,ELEMENT_SET_NO,REV_AT_EPOCH,BSTAR,MEAN_MOTION_DOT,MEAN_MOTION_DDOT
ICEYE-X39,2024-149CG,2026-07-15T18:16:58.962720,15.00075595,.00069298,97.6790,273.4005,45.0882,315.0903,0,U,60546,999,10440,.18588028E-3,.2258E-4,0
UMBRA-10,2024-149CH,2026-07-15T19:09:35.206560,15.18861857,.0001674,97.6981,284.5401,166.3022,193.8257,0,U,60547,999,10507,.47044714E-3,.974E-4,0
ICEYE-X33,2024-149CJ,2026-07-15T18:28:35.556672,15.00888774,.00019038,97.7366,275.7676,74.5375,285.6059,0,U,60548,999,10449,.23385219E-3,.2916E-4,0
ICEYE-X40,2024-149CK,2026-07-15T03:46:08.983488,14.98070105,.00039977,97.6795,272.2031,6.4770,353.6503,0,U,60549,999,10426,.12620525E-3,.1435E-4,0
SATELIOT_1,2024-149CL,2026-07-15T17:55:44.053824,14.98164284,.0005583,97.6733,272.1698,350.9800,9.1321,0,U,60550,999,10434,.10279102E-3,.1161E-4,0
BRO-14,2024-149CM,2026-07-15T03:35:56.497344,14.96235870,.00067346,97.6864,271.4249,18.0591,342.0868,0,U,60551,999,10417,.86103082E-4,.914E-5,0
SATELIOT_3,2024-149CN,2026-07-15T18:57:13.704480,14.98164504,.00049921,97.6817,273.0309,2.3270,357.7975,0,U,60552,999,10436,.36954164E-4,.38E-5,0
BRO-15,2024-149CP,2026-07-15T22:26:38.033952,14.96221933,.00077008,97.6790,271.7710,2.0879,358.0373,0,U,60553,999,10430,.29830494E-4,.279E-5,0
UM5-RIBAT,2024-149CQ,2026-07-15T22:25:57.164160,15.01219943,.00006368,97.6605,274.3451,345.1963,14.9242,0,U,60554,999,10450,.94625614E-4,.1155E-4,0
UM5-EOSAT,2024-149CR,2026-07-15T03:48:42.267456,15.01728593,.00091169,97.6776,274.5816,35.6763,324.5069,0,U,60555,999,10441,.15172289E-3,.1915E-4,0
LASARSAT,2024-247Q,2026-07-15T18:30:32.971680,15.48070783,.00074837,44.9738,101.3785,169.7911,190.3132,0,U,62391,999,8774,.44538181E-3,.23596E-3,0
CROCUBE,2024-247T,2026-07-15T02:05:50.091648,15.50189566,.0007544,44.9722,102.0802,171.5148,188.5872,0,U,62394,999,8767,.45369582E-3,.25934E-3,0
TEVEL2-4,2025-052D,2026-07-15T03:30:38.474496,15.35565165,.00035404,97.3870,92.5984,51.9364,308.2199,0,U,63213,999,7440,.31214817E-3,.10715E-3,0
TEVEL2-5,2025-052E,2026-07-15T04:04:51.940704,15.35379345,.00035943,97.3866,92.5619,53.2255,306.9318,0,U,63214,999,7440,.30277793E-3,.10329E-3,0
TEVEL2-6,2025-052F,2026-07-15T12:12:47.954304,15.35351129,.00036215,97.3871,92.8865,54.7007,305.4575,0,U,63215,999,7445,.343915E-3,.11734E-3,0
TEVEL2-1,2025-052H,2026-07-14T15:14:51.352512,15.34761887,.0004319,97.3847,91.6018,61.6960,298.4718,0,U,63217,999,7430,.2955724E-3,.9885E-4,0
TEVEL2-3,2025-052J,2026-07-15T05:10:33.241728,15.34836829,.00039996,97.3848,92.2082,62.2511,297.9137,0,U,63218,999,7439,.30743443E-3,.10309E-3,0
TEVEL2-2,2025-052K,2026-07-15T03:46:07.684032,15.34784029,.00043245,97.3840,92.1268,60.5637,299.6037,0,U,63219,999,7438,.30238262E-3,.10122E-3,0
TEVEL2-9,2025-052AD,2026-07-15T22:54:43.530336,15.32746436,.00076157,97.3903,92.2363,55.0737,305.1220,0,U,63237,999,7443,.29400341E-3,.9229E-4,0
TEVEL2-7,2025-052AE,2026-07-15T03:39:30.098880,15.32415280,.0007756,97.3906,91.3390,56.8395,303.3590,0,U,63238,999,7430,.29112625E-3,.9043E-4,0
TEVEL2-8,2025-052AF,2026-07-15T22:40:08.314752,15.32415227,.00077414,97.3903,92.1059,55.6204,304.5769,0,U,63239,999,7442,.29547985E-3,.9179E-4,0
FORESAIL-1 PRIME,2025-276DS,2026-07-15T18:53:27.703680,15.18941111,.00028523,97.4192,269.5370,43.1947,316.9511,0,U,66778,999,3474,.11377392E-3,.2309E-4,0
